CCSDS_OMM_VERS = 2.0
CREATION_DATE  = 
ORIGINATOR     = 

OBJECT_NAME    = STARLINK-36447
OBJECT_ID      = 2026-005X
CENTER_NAME    = EARTH
REF_FRAME      = TEME
TIME_SYSTEM    = UTC
MEAN_ELEMENT_THEORY = SGP/SGP4

EPOCH          = 2026-02-03T12:00:01.999296
MEAN_MOTION    = 15.50499248
ECCENTRICITY   = .0001105
INCLINATION    = 43.0002
RA_OF_ASC_NODE = 74.1455
ARG_OF_PERICENTER = 278.9018
MEAN_ANOMALY   = 26.7209

EPHEMERIS_TYPE = 0
CLASSIFICATION_TYPE = U
NORAD_CAT_ID   = 67425
ELEMENT_SET_NO = 999
REV_AT_EPOCH   = 469
BSTAR          = .17118E-2
MEAN_MOTION_DOT = .101097E-2
MEAN_MOTION_DDOT = 0

CCSDS_OMM_VERS = 2.0
CREATION_DATE  = 
ORIGINATOR     = 

OBJECT_NAME    = STARLINK-36146
OBJECT_ID      = 2026-005Y
CENTER_NAME    = EARTH
REF_FRAME      = TEME
TIME_SYSTEM    = UTC
MEAN_ELEMENT_THEORY = SGP/SGP4

EPOCH          = 2026-02-03T12:00:01.999296
MEAN_MOTION    = 15.50488840
ECCENTRICITY   = .0001494
INCLINATION    = 43.0002
RA_OF_ASC_NODE = 74.1415
ARG_OF_PERICENTER = 275.4647
MEAN_ANOMALY   = 32.0801

EPHEMERIS_TYPE = 0
CLASSIFICATION_TYPE = U
NORAD_CAT_ID   = 67426
ELEMENT_SET_NO = 999
REV_AT_EPOCH   = 464
BSTAR          = .201E-2
MEAN_MOTION_DOT = .119E-2
MEAN_MOTION_DDOT = 0

CCSDS_OMM_VERS = 2.0
CREATION_DATE  = 
ORIGINATOR     = 

OBJECT_NAME    = STARLINK-36459
OBJECT_ID      = 2026-005Z
CENTER_NAME    = EARTH
REF_FRAME      = TEME
TIME_SYSTEM    = UTC
MEAN_ELEMENT_THEORY = SGP/SGP4

EPOCH          = 2026-02-03T12:00:01.999296
MEAN_MOTION    = 15.50498862
ECCENTRICITY   = .0001468
INCLINATION    = 43.0002
RA_OF_ASC_NODE = 74.1354
ARG_OF_PERICENTER = 276.5114
MEAN_ANOMALY   = 32.9475

EPHEMERIS_TYPE = 0
CLASSIFICATION_TYPE = U
NORAD_CAT_ID   = 67427
ELEMENT_SET_NO = 999
REV_AT_EPOCH   = 461
BSTAR          = .17183E-2
MEAN_MOTION_DOT = .101491E-2
MEAN_MOTION_DDOT = 0

CCSDS_OMM_VERS = 2.0
CREATION_DATE  = 
ORIGINATOR     = 

OBJECT_NAME    = STARLINK-36464
OBJECT_ID      = 2026-005AA
CENTER_NAME    = EARTH
REF_FRAME      = TEME
TIME_SYSTEM    = UTC
MEAN_ELEMENT_THEORY = SGP/SGP4

EPOCH          = 2026-02-03T12:00:01.999296
MEAN_MOTION    = 15.50481552
ECCENTRICITY   = .0001423
INCLINATION    = 43.0003
RA_OF_ASC_NODE = 74.1265
ARG_OF_PERICENTER = 274.1156
MEAN_ANOMALY   = 39.1837

EPHEMERIS_TYPE = 0
CLASSIFICATION_TYPE = U
NORAD_CAT_ID   = 67428
ELEMENT_SET_NO = 999
REV_AT_EPOCH   = 469
BSTAR          = .23901E-2
MEAN_MOTION_DOT = .141954E-2
MEAN_MOTION_DDOT = 0

CCSDS_OMM_VERS = 2.0
CREATION_DATE  = 
ORIGINATOR     = 

OBJECT_NAME    = STARLINK-36513
OBJECT_ID      = 2026-005AB
CENTER_NAME    = EARTH
REF_FRAME      = TEME
TIME_SYSTEM    = UTC
MEAN_ELEMENT_THEORY = SGP/SGP4

EPOCH          = 2026-02-03T12:00:01.999296
MEAN_MOTION    = 15.50577886
ECCENTRICITY   = .0000754
INCLINATION    = 43.0001
RA_OF_ASC_NODE = 74.1206
ARG_OF_PERICENTER = 280.4711
MEAN_ANOMALY   = 34.7121

EPHEMERIS_TYPE = 0
CLASSIFICATION_TYPE = U
NORAD_CAT_ID   = 67429
ELEMENT_SET_NO = 999
REV_AT_EPOCH   = 469
BSTAR          = -.58205E-3
MEAN_MOTION_DOT = -.34335E-3
MEAN_MOTION_DDOT = 0

CCSDS_OMM_VERS = 2.0
CREATION_DATE  = 
ORIGINATOR     = 

OBJECT_NAME    = STARLINK-36515
OBJECT_ID      = 2026-005AC
CENTER_NAME    = EARTH
REF_FRAME      = TEME
TIME_SYSTEM    = UTC
MEAN_ELEMENT_THEORY = SGP/SGP4

EPOCH          = 2026-02-03T12:00:01.999296
MEAN_MOTION    = 15.50498893
ECCENTRICITY   = .0001393
INCLINATION    = 43.0002
RA_OF_ASC_NODE = 74.1308
ARG_OF_PERICENTER = 273.9036
MEAN_ANOMALY   = 37.4720

EPHEMERIS_TYPE = 0
CLASSIFICATION_TYPE = U
NORAD_CAT_ID   = 67430
ELEMENT_SET_NO = 999
REV_AT_EPOCH   = 461
BSTAR          = .17292E-2
MEAN_MOTION_DOT = .102144E-2
MEAN_MOTION_DDOT = 0

CCSDS_OMM_VERS = 2.0
CREATION_DATE  = 
ORIGINATOR     = 

OBJECT_NAME    = STARLINK-36443
OBJECT_ID      = 2026-005AD
CENTER_NAME    = EARTH
REF_FRAME      = TEME
TIME_SYSTEM    = UTC
MEAN_ELEMENT_THEORY = SGP/SGP4

EPOCH          = 2026-02-03T12:00:01.999296
MEAN_MOTION    = 15.50498393
ECCENTRICITY   = .0000825
INCLINATION    = 43.0001
RA_OF_ASC_NODE = 74.1155
ARG_OF_PERICENTER = 278.5080
MEAN_ANOMALY   = 38.6206

EPHEMERIS_TYPE = 0
CLASSIFICATION_TYPE = U
NORAD_CAT_ID   = 67431
ELEMENT_SET_NO = 999
REV_AT_EPOCH   = 464
BSTAR          = .17078E-2
MEAN_MOTION_DOT = .100857E-2
MEAN_MOTION_DDOT = 0

CCSDS_OMM_VERS = 2.0
CREATION_DATE  = 
ORIGINATOR     = 

OBJECT_NAME    = STARLINK-36460
OBJECT_ID      = 2026-005AE
CENTER_NAME    = EARTH
REF_FRAME      = TEME
TIME_SYSTEM    = UTC
MEAN_ELEMENT_THEORY = SGP/SGP4

EPOCH          = 2026-02-03T12:00:01.999296
MEAN_MOTION    = 15.50497925
ECCENTRICITY   = .0001079
INCLINATION    = 43.0002
RA_OF_ASC_NODE = 74.1109
ARG_OF_PERICENTER = 276.6006
MEAN_ANOMALY   = 42.4474

EPHEMERIS_TYPE = 0
CLASSIFICATION_TYPE = U
NORAD_CAT_ID   = 67432
ELEMENT_SET_NO = 999
REV_AT_EPOCH   = 469
BSTAR          = .16914E-2
MEAN_MOTION_DOT = .99869E-3
MEAN_MOTION_DDOT = 0

CCSDS_OMM_VERS = 2.0
CREATION_DATE  = 
ORIGINATOR     = 

OBJECT_NAME    = YAOGAN-50 01
OBJECT_ID      = 2026-006A
CENTER_NAME    = EARTH
REF_FRAME      = TEME
TIME_SYSTEM    = UTC
MEAN_ELEMENT_THEORY = SGP/SGP4

EPOCH          = 2026-02-03T11:24:56.036448
MEAN_MOTION    = 13.83253701
ECCENTRICITY   = .0000661
INCLINATION    = 142.0319
RA_OF_ASC_NODE = 289.6088
ARG_OF_PERICENTER = 263.8160
MEAN_ANOMALY   = 96.2484

EPHEMERIS_TYPE = 0
CLASSIFICATION_TYPE = U
NORAD_CAT_ID   = 67433
ELEMENT_SET_NO = 999
REV_AT_EPOCH   = 291
BSTAR          = .1402E-3
MEAN_MOTION_DOT = .343E-5
MEAN_MOTION_DDOT = 0

CCSDS_OMM_VERS = 2.0
CREATION_DATE  = 
ORIGINATOR     = 

OBJECT_NAME    = CZ-6A R/B
OBJECT_ID      = 2026-006B
CENTER_NAME    = EARTH
REF_FRAME      = TEME
TIME_SYSTEM    = UTC
MEAN_ELEMENT_THEORY = SGP/SGP4

EPOCH          = 2026-02-03T06:32:03.740064
MEAN_MOTION    = 14.62295854
ECCENTRICITY   = .0203433
INCLINATION    = 142.0436
RA_OF_ASC_NODE = 301.3353
ARG_OF_PERICENTER = 233.4810
MEAN_ANOMALY   = 124.7028

EPHEMERIS_TYPE = 0
CLASSIFICATION_TYPE = U
NORAD_CAT_ID   = 67434
ELEMENT_SET_NO = 999
REV_AT_EPOCH   = 303
BSTAR          = .179E-3
MEAN_MOTION_DOT = .1559E-4
MEAN_MOTION_DDOT = 0

CCSDS_OMM_VERS = 2.0
CREATION_DATE  = 
ORIGINATOR     = 

OBJECT_NAME    = HULIANWANG DIGUI-137
OBJECT_ID      = 2026-007A
CENTER_NAME    = EARTH
REF_FRAME      = TEME
TIME_SYSTEM    = UTC
MEAN_ELEMENT_THEORY = SGP/SGP4

EPOCH          = 2026-02-02T23:32:17.345184
MEAN_MOTION    = 13.80162070
ECCENTRICITY   = .0000216
INCLINATION    = 50.0076
RA_OF_ASC_NODE = 213.7063
ARG_OF_PERICENTER = 306.0341
MEAN_ANOMALY   = 54.0533

EPHEMERIS_TYPE = 0
CLASSIFICATION_TYPE = U
NORAD_CAT_ID   = 67435
ELEMENT_SET_NO = 999
REV_AT_EPOCH   = 283
BSTAR          = .13502E-3
MEAN_MOTION_DOT = -.1E-7
MEAN_MOTION_DDOT = 0

CCSDS_OMM_VERS = 2.0
CREATION_DATE  = 
ORIGINATOR     = 

OBJECT_NAME    = HULIANWANG DIGUI-138
OBJECT_ID      = 2026-007B
CENTER_NAME    = EARTH
REF_FRAME      = TEME
TIME_SYSTEM    = UTC
MEAN_ELEMENT_THEORY = SGP/SGP4

EPOCH          = 2026-02-01T14:38:35.374560
MEAN_MOTION    = 13.81629411
ECCENTRICITY   = .00007637
INCLINATION    = 50.0069
RA_OF_ASC_NODE = 219.1163
ARG_OF_PERICENTER = 166.5393
MEAN_ANOMALY   = 193.5523

EPHEMERIS_TYPE = 0
CLASSIFICATION_TYPE = U
NORAD_CAT_ID   = 67436
ELEMENT_SET_NO = 999
REV_AT_EPOCH   = 264
BSTAR          = .1326619E-3
MEAN_MOTION_DOT = -.1E-7
MEAN_MOTION_DDOT = 0

