STARLINK-36447          
1 67425U 26005X   26034.50002314  .00101097  00000+0  17118-2 0  9994
2 67425  43.0002  74.1455 0001105 278.9018  26.7209 15.50499248  4695
STARLINK-36146          
1 67426U 26005Y   26034.50002314  .00119000  00000+0  20100-2 0  9993
2 67426  43.0002  74.1415 0001494 275.4647  32.0801 15.50488840  4642
STARLINK-36459          
1 67427U 26005Z   26034.50002314  .00101491  00000+0  17183-2 0  9996
2 67427  43.0002  74.1354 0001468 276.5114  32.9475 15.50498862  4615
STARLINK-36464          
1 67428U 26005AA  26034.50002314  .00141954  00000+0  23901-2 0  9990
2 67428  43.0003  74.1265 0001423 274.1156  39.1837 15.50481552  4696
STARLINK-36513          
1 67429U 26005AB  26034.50002314 -.00034335  00000+0 -58205-3 0  9993
2 67429  43.0001  74.1206 0000754 280.4711  34.7121 15.50577886  4696
STARLINK-36515          
1 67430U 26005AC  26034.50002314  .00102144  00000+0  17292-2 0  9997
2 67430  43.0002  74.1308 0001393 273.9036  37.4720 15.50498893  4616
STARLINK-36443          
1 67431U 26005AD  26034.50002314  .00100857  00000+0  17078-2 0  9999
2 67431  43.0001  74.1155 0000825 278.5080  38.6206 15.50498393  4645
STARLINK-36460          
1 67432U 26005AE  26034.50002314  .00099869  00000+0  16914-2 0  9998
2 67432  43.0002  74.1109 0001079 276.6006  42.4474 15.50497925  4690
YAOGAN-50 01            
1 67433U 26006A   26034.47564857  .00000343  00000+0  14020-3 0  9997
2 67433 142.0319 289.6088 0000661 263.8160  96.2484 13.83253701  2913
CZ-6A R/B               
1 67434U 26006B   26034.27226551  .00001559  00000+0  17900-3 0  9992
2 67434 142.0436 301.3353 0203433 233.4810 124.7028 14.62295854  3036
HULIANWANG DIGUI-137    
1 67435U 26007A   26033.98075631 -.00000001  00000+0  13502-3 0  9998
2 67435  50.0076 213.7063 0000216 306.0341  54.0533 13.80162070  2834
HULIANWANG DIGUI-138    
1 67436U 26007B   26032.61013165 -.00000001  00000+0  13266-3 0  9999
2 67436  50.0069 219.1163 0000763 166.5393 193.5523 13.81629411  2646
